{"type": "FeatureCollection", "features": [ {"type": "Feature", "properties": {"norad_id": 40938, "name": "BEIDOU-3S IGSO-2S (C56)", "group": "gnss", "lat": 2.9135229402964575, "lon": 78.42792020376629, "alt_km": 35536.95012807948, "timestamp": "2025-12-20T16:47:36.528852+00:00", "meta": {"OBJECT_NAME": "BEIDOU-3S IGSO-2S (C56)", "OBJECT_ID": "2015-053A", "EPOCH": "2025-12-20T13:40:56.130240", "MEAN_MOTION": 1.00268369, "ECCENTRICITY": 0.0060606, "INCLINATION": 49.4984, "RA_OF_ASC_NODE": 260.9134, "ARG_OF_PERICENTER": 188.756, "MEAN_ANOMALY": 300.8373, "EPHEMERIS_TYPE": 0, "CLASSIFICATION_TYPE": "U", "NORAD_CAT_ID": 40938, "ELEMENT_SET_NO": 999, "REV_AT_EPOCH": 3756, "BSTAR": 0, "MEAN_MOTION_DOT": -1.07e-06, "MEAN_MOTION_DDOT": 0}, "tle": {"line1": "1 40938U 15053A   25354.57009410 -.00000107  00000+0  00000+0 0  9990", "line2": "2 40938  49.4984 260.9134 0060606 188.7560 300.8373  1.00268369 37562"}}, "geometry": {"type": "Point", "coordinates": [78.42792020376629, 2.9135229402964575]}}, {"type": "Feature", "properties": {"norad_id": 41019, "name": "GPS BIIF-11 (PRN 10)", "group": "gnss", "lat": -48.187173721204296, "lon": -9.213702608215193, "alt_km": 20068.654876331646, "timestamp": "2025-12-20T16:47:36.528863+00:00", "meta": {"OBJECT_NAME": "GPS BIIF-11 (PRN 10)", "OBJECT_ID": "2015-062A", "EPOCH": "2025-12-20T06:55:31.851840", "MEAN_MOTION": 2.00567229, "ECCENTRICITY": 0.011101, "INCLINATION": 56.8376, "RA_OF_ASC_NODE": 37.7103, "ARG_OF_PERICENTER": 230.1354, "MEAN_ANOMALY": 128.9487, "EPHEMERIS_TYPE": 0, "CLASSIFICATION_TYPE": "U", "NORAD_CAT_ID": 41019, "ELEMENT_SET_NO": 999, "REV_AT_EPOCH": 7424, "BSTAR": 0, "MEAN_MOTION_DOT": -5.7e-07, "MEAN_MOTION_DDOT": 0}, "tle": {"line1": "1 41019U 15062A   25354.28856310 -.00000057  00000+0  00000+0 0  9992", "line2": "2 41019  56.8376  37.7103 0111010 230.1354 128.9487  2.00567229 74244"}}, "geometry": {"type": "Point", "coordinates": [-9.213702608215193, -48.187173721204296]}}, {"type": "Feature", "properties": {"norad_id": 41028, "name": "GSAT-15 (GAGAN/PRN 139)", "group": "gnss", "lat": 0.025958860995922796, "lon": 74.91274884270904, "alt_km": 35795.50273509372, "timestamp": "2025-12-20T16:47:36.528875+00:00", "meta": {"OBJECT_NAME": "GSAT-15 (GAGAN/PRN 139)", "OBJECT_ID": "2015-065A", "EPOCH": "2025-12-20T08:32:20.567904", "MEAN_MOTION": 1.00272361, "ECCENTRICITY": 0.0002407, "INCLINATION": 0.0297, "RA_OF_ASC_NODE": 271.8736, "ARG_OF_PERICENTER": 322.6244, "MEAN_ANOMALY": 76.2775, "EPHEMERIS_TYPE": 0, "CLASSIFICATION_TYPE": "U", "NORAD_CAT_ID": 41028, "ELEMENT_SET_NO": 999, "REV_AT_EPOCH": 3700, "BSTAR": 0, "MEAN_MOTION_DOT": -2.34e-06, "MEAN_MOTION_DDOT": 0}, "tle": {"line1": "1 41028U 15065A   25354.35579361 -.00000234  00000+0  00000+0 0  9998", "line2": "2 41028   0.0297 271.8736 0002407 322.6244  76.2775  1.00272361 37001"}}, "geometry": {"type": "Point", "coordinates": [74.91274884270904, 0.025958860995922796]}}, {"type": "Feature", "properties": {"norad_id": 41174, "name": "GSAT0209 (GALILEO 12)", "group": "gnss", "lat": -8.901310003910284, "lon": 100.03236979861656, "alt_km": 23216.224514737325, "timestamp": "2025-12-20T16:47:36.528888+00:00", "meta": {"OBJECT_NAME": "GSAT0209 (GALILEO 12)", "OBJECT_ID": "2015-079A", "EPOCH": "2025-12-17T18:49:30.009504", "MEAN_MOTION": 1.70474581, "ECCENTRICITY": 0.00024688, "INCLINATION": 55.7156, "RA_OF_ASC_NODE": 106.2426, "ARG_OF_PERICENTER": 347.1145, "MEAN_ANOMALY": 12.8381, "EPHEMERIS_TYPE": 0, "CLASSIFICATION_TYPE": "U", "NORAD_CAT_ID": 41174, "ELEMENT_SET_NO": 999, "REV_AT_EPOCH": 6168, "BSTAR": 0, "MEAN_MOTION_DOT": -9e-08, "MEAN_MOTION_DDOT": 0}, "tle": {"line1": "1 41174U 15079A   25351.78437511 -.00000009  00000+0  00000+0 0  9999", "line2": "2 41174  55.7156 106.2426 0002468 347.1145  12.8381  1.70474581 61685"}}, "geometry": {"type": "Point", "coordinates": [100.03236979861656, -8.901310003910284]}}, {"type": "Feature", "properties": {"norad_id": 41175, "name": "GSAT0208 (GALILEO 11)", "group": "gnss", "lat": -27.621896059730524, "lon": -52.96226861474297, "alt_km": 23230.11850059721, "timestamp": "2025-12-20T16:47:36.528900+00:00", "meta": {"OBJECT_NAME": "GSAT0208 (GALILEO 11)", "OBJECT_ID": "2015-079B", "EPOCH": "2025-12-20T08:25:16.296384", "MEAN_MOTION": 1.70474393, "ECCENTRICITY": 0.0001808, "INCLINATION": 55.7157, "RA_OF_ASC_NODE": 106.1693, "ARG_OF_PERICENTER": 359.1842, "MEAN_ANOMALY": 0.7815, "EPHEMERIS_TYPE": 0, "CLASSIFICATION_TYPE": "U", "NORAD_CAT_ID": 41175, "ELEMENT_SET_NO": 999, "REV_AT_EPOCH": 6214, "BSTAR": 0, "MEAN_MOTION_DOT": -2e-08, "MEAN_MOTION_DDOT": 0}, "tle": {"line1": "1 41175U 15079B   25354.35088306 -.00000002  00000+0  00000+0 0  9993", "line2": "2 41175  55.7157 106.1693 0001808 359.1842   0.7815  1.70474393 62147"}}, "geometry": {"type": "Point", "coordinates": [-52.96226861474297, -27.621896059730524]}}, {"type": "Feature", "properties": {"norad_id": 41241, "name": "IRNSS-1E", "group": "gnss", "lat": 16.09981102949153, "lon": 88.88500636768082, "alt_km": 35869.55283475937, "timestamp": "2025-12-20T16:47:36.528911+00:00", "meta": {"OBJECT_NAME": "IRNSS-1E", "OBJECT_ID": "2016-003A", "EPOCH": "2025-12-18T14:48:50.843232", "MEAN_MOTION": 1.00271358, "ECCENTRICITY": 0.00216611, "INCLINATION": 32.8383, "RA_OF_ASC_NODE": 62.3675, "ARG_OF_PERICENTER": 188.4275, "MEAN_ANOMALY": 170.6574, "EPHEMERIS_TYPE": 0, "CLASSIFICATION_TYPE": "U", "NORAD_CAT_ID": 41241, "ELEMENT_SET_NO": 999, "REV_AT_EPOCH": 3626, "BSTAR": 0, "MEAN_MOTION_DOT": -3.05e-06, "MEAN_MOTION_DDOT": 0}, "tle": {"line1": "1 41241U 16003A   25352.61725513 -.00000305  00000+0  00000+0 0  9996", "line2": "2 41241  32.8383  62.3675 0021661 188.4275 170.6574  1.00271358 36265"}}, "geometry": {"type": "Point", "coordinates": [88.88500636768082, 16.09981102949153]}}, {"type": "Feature", "properties": {"norad_id": 41328, "name": "GPS BIIF-12 (PRN 32)", "group": "gnss", "lat": -43.13248053353296, "lon": -43.25455928439082, "alt_km": 19944.049714572127, "timestamp": "2025-12-20T16:47:36.528943+00:00", "meta": {"OBJECT_NAME": "GPS BIIF-12 (PRN 32)", "OBJECT_ID": "2016-007A", "EPOCH": "2025-12-20T08:54:35.720064", "MEAN_MOTION": 2.00560411, "ECCENTRICITY": 0.0092542, "INCLINATION": 55.4103, "RA_OF_ASC_NODE": 96.5541, "ARG_OF_PERICENTER": 243.7653, "MEAN_ANOMALY": 115.2741, "EPHEMERIS_TYPE": 0, "CLASSIFICATION_TYPE": "U", "NORAD_CAT_ID": 41328, "ELEMENT_SET_NO": 999, "REV_AT_EPOCH": 7225, "BSTAR": 0, "MEAN_MOTION_DOT": -1.8e-07, "MEAN_MOTION_DDOT": 0}, "tle": {"line1": "1 41328U 16007A   25354.37124676 -.00000018  00000+0  00000+0 0  9995", "line2": "2 41328  55.4103  96.5541 0092542 243.7653 115.2741  2.00560411 72256"}}, "geometry": {"type": "Point", "coordinates": [-43.25455928439082, -43.13248053353296]}}, {"type": "Feature", "properties": {"norad_id": 41330, "name": "COSMOS 2514 (751)", "group": "gnss", "lat": 22.1829956027448, "lon": 128.2170666406771, "alt_km": 19114.645469865576, "timestamp": "2025-12-20T16:47:36.528956+00:00", "meta": {"OBJECT_NAME": "COSMOS 2514 (751)", "OBJECT_ID": "2016-008A", "EPOCH": "2025-12-20T00:39:53.034624", "MEAN_MOTION": 2.13102672, "ECCENTRICITY": 0.0011779, "INCLINATION": 65.1296, "RA_OF_ASC_NODE": 319.1545, "ARG_OF_PERICENTER": 220.1416, "MEAN_ANOMALY": 139.763, "EPHEMERIS_TYPE": 0, "CLASSIFICATION_TYPE": "U", "NORAD_CAT_ID": 41330, "ELEMENT_SET_NO": 999, "REV_AT_EPOCH": 7680, "BSTAR": 0, "MEAN_MOTION_DOT": -5.4e-07, "MEAN_MOTION_DDOT": 0}, "tle": {"line1": "1 41330U 16008A   25354.02769716 -.00000054  00000+0  00000+0 0  9991", "line2": "2 41330  65.1296 319.1545 0011779 220.1416 139.7630  2.13102672 76805"}}, "geometry": {"type": "Point", "coordinates": [128.2170666406771, 22.1829956027448]}}, {"type": "Feature", "properties": {"norad_id": 41384, "name": "IRNSS-1F", "group": "gnss", "lat": -4.890272020022758, "lon": 14.141848053593101, "alt_km": 35787.79687887904, "timestamp": "2025-12-20T16:47:36.528968+00:00", "meta": {"OBJECT_NAME": "IRNSS-1F", "OBJECT_ID": "2016-015A", "EPOCH": "2025-12-19T23:41:22.009056", "MEAN_MOTION": 1.00276206, "ECCENTRICITY": 0.00226432, "INCLINATION": 4.8991, "RA_OF_ASC_NODE": 101.1179, "ARG_OF_PERICENTER": 181.5741, "MEAN_ANOMALY": 193.9029, "EPHEMERIS_TYPE": 0, "CLASSIFICATION_TYPE": "U", "NORAD_CAT_ID": 41384, "ELEMENT_SET_NO": 999, "REV_AT_EPOCH": 3587, "BSTAR": 0, "MEAN_MOTION_DOT": 1.78e-06, "MEAN_MOTION_DDOT": 0}, "tle": {"line1": "1 41384U 16015A   25353.98706029  .00000178  00000+0  00000+0 0  9996", "line2": "2 41384   4.8991 101.1179 0022643 181.5741 193.9029  1.00276206 35877"}}, "geometry": {"type": "Point", "coordinates": [14.141848053593101, -4.890272020022758]}}, {"type": "Feature", "properties": {"norad_id": 41434, "name": "BEIDOU-2 IGSO-6 (C13)", "group": "gnss", "lat": 29.87348892783575, "lon": 59.2439480680752, "alt_km": 36026.59064462869, "timestamp": "2025-12-20T16:47:36.528980+00:00", "meta": {"OBJECT_NAME": "BEIDOU-2 IGSO-6 (C13)", "OBJECT_ID": "2016-021A", "EPOCH": "2025-12-18T14:33:38.837664", "MEAN_MOTION": 1.00292299, "ECCENTRICITY": 0.00610054, "INCLINATION": 59.9732, "RA_OF_ASC_NODE": 39.8392, "ARG_OF_PERICENTER": 230.2031, "MEAN_ANOMALY": 129.1398, "EPHEMERIS_TYPE": 0, "CLASSIFICATION_TYPE": "U", "NORAD_CAT_ID": 41434, "ELEMENT_SET_NO": 999, "REV_AT_EPOCH": 3566, "BSTAR": 0, "MEAN_MOTION_DOT": -1.41e-06, "MEAN_MOTION_DDOT": 0}, "tle": {"line1": "1 41434U 16021A   25352.60669951 -.00000141  00000+0  00000+0 0  9990", "line2": "2 41434  59.9732  39.8392 0061005 230.2031 129.1398  1.00292299 35667"}}, "geometry": {"type": "Point", "coordinates": [59.2439480680752, 29.87348892783575]}}]}